package predict

hiber1_tle, _ := predict.NewTLE([]string{
	"HIBER-1                 ",
	"1 43744U 18096AB  19115.19815699  .00002003  00000-0  78676-4 0  9994",
	"2 43744  97.4641 185.2907 0018688 163.4737 196.7173 15.26755683 22421",
})
